{
    "links": {
        "self": "http://www.neowsapp.com/rest/v1/neo/3351041?api_key=iIulBulltgU6a56xZRHN4H3l9WmuAYTsLGpBGhQ2"
    },
    "id": "3351041",
    "neo_reference_id": "3351041",
    "name": "(2006 UF)",
    "designation": "2006 UF",
    "nasa_jpl_url": "http://ssd.jpl.nasa.gov/sbdb.cgi?sstr=3351041",
    "absolute_magnitude_h": 22.3,
    "estimated_diameter": {
        "kilometers": {
            "estimated_diameter_min": 0.0921626549,
            "estimated_diameter_max": 0.2060819612
        },
        "meters": {
            "estimated_diameter_min": 92.1626548503,
            "estimated_diameter_max": 206.0819612321
        },
        "miles": {
            "estimated_diameter_min": 0.057267201,
            "estimated_diameter_max": 0.1280533543
        },
        "feet": {
            "estimated_diameter_min": 302.370924539,
            "estimated_diameter_max": 676.1219416887
        }
    },
    "is_potentially_hazardous_asteroid": false,
    "close_approach_data": [
        {
            "close_approach_date": "1948-11-07",
            "close_approach_date_full": "1948-Nov-07 07:07",
            "epoch_date_close_approach": -667414380000,
            "relative_velocity": {
                "kilometers_per_second": "5.0781815331",
                "kilometers_per_hour": "18281.4535190736",
                "miles_per_hour": "11359.3842713377"
            },
            "miss_distance": {
                "astronomical": "0.2145199471",
                "lunar": "83.4482594219",
                "kilometers": "32091727.158672677",
                "miles": "19940874.5857578626"
            },
            "orbiting_body": "Earth"
        },
        {
            "close_approach_date": "1979-11-09",
            "close_approach_date_full": "1979-Nov-09 00:51",
            "epoch_date_close_approach": 310956660000,
            "relative_velocity": {
                "kilometers_per_second": "5.3115074819",
                "kilometers_per_hour": "19121.4269349349",
                "miles_per_hour": "11881.3110863211"
            },
            "miss_distance": {
                "astronomical": "0.2059099195",
                "lunar": "80.0989586855",
                "kilometers": "30803685.369071465",
                "miles": "19140522.530517617"
            },
            "orbiting_body": "Earth"
        },
        {
            "close_approach_date": "2006-11-07",
            "close_approach_date_full": "2006-Nov-07 03:46",
            "epoch_date_close_approach": 1162871160000,
            "relative_velocity": {
                "kilometers_per_second": "5.7195835778",
                "kilometers_per_hour": "20590.500880034",
                "miles_per_hour": "12794.1365051522"
            },
            "miss_distance": {
                "astronomical": "0.1712060224",
                "lunar": "66.5991427136",
                "kilometers": "25612056.282212288",
                "miles": "15914593.8042460544"
            },
            "orbiting_body": "Earth"
        },
        {
            "close_approach_date": "2033-10-27",
            "close_approach_date_full": "2033-Oct-27 04:06",
            "epoch_date_close_approach": 2013998760000,
            "relative_velocity": {
                "kilometers_per_second": "11.351248125",
                "kilometers_per_hour": "40864.4932498484",
                "miles_per_hour": "25391.6069307183"
            },
            "miss_distance": {
                "astronomical": "0.3992595495",
                "lunar": "155.3119647555",
                "kilometers": "59728378.182359565",
                "miles": "37113493.226969397"
            },
            "orbiting_body": "Earth"
        },
        {
            "close_approach_date": "2060-11-05",
            "close_approach_date_full": "2060-Nov-05 21:12",
            "epoch_date_close_approach": 2866914720000,
            "relative_velocity": {
                "kilometers_per_second": "6.2346473172",
                "kilometers_per_hour": "22444.7303418794",
                "miles_per_hour": "13946.2825838194"
            },
            "miss_distance": {
                "astronomical": "0.2246847841",
                "lunar": "87.4023810149",
                "kilometers": "33612365.122769867",
                "miles": "20885755.2019514846"
            },
            "orbiting_body": "Earth"
        }
    ],
    "orbital_data": {
        "orbit_id": "20",
        "orbit_determination_date": "2017-04-06 09:07:53",
        "first_observation_date": "2006-10-16",
        "last_observation_date": "2006-12-21",
        "data_arc_in_days": 66,
        "observations_used": 63,
        "orbit_uncertainty": "6",
        "minimum_orbit_intersection": ".170989",
        "jupiter_tisserand_invariant": "3.276",
        "epoch_osculation": "2459000.5",
        "eccentricity": ".5297939658841097",
        "semi_major_axis": "2.455628517228968",
        "inclination": "6.949026903700361",
        "ascending_node_longitude": "207.5344668597321",
        "orbital_period": "1405.537474167072",
        "perihelion_distance": "1.154651346348117",
        "perihelion_argument": "203.5962158527168",
        "aphelion_distance": "3.756605688109818",
        "perihelion_time": "2459675.140795650460",
        "mean_anomaly": "187.2044033702537",
        "mean_motion": ".2561297771255354",
        "equinox": "J2000",
        "orbit_class": {
            "orbit_class_type": "AMO",
            "orbit_class_description": "Near-Earth asteroid orbits similar to that of 1221 Amor",
            "orbit_class_range": "1.017 AU < q (perihelion) < 1.3 AU"
        }
    },
    "is_sentry_object": false
}